{
  "type": "FeatureCollection",
  "features": [
    {
      "type": "Feature",
      "properties": {
        "norad_id": 30153,
        "name": "FENGYUN 1C DEB",
        "group": "fengyun-1c-debris",
        "lat": -78.80383297636384,
        "lon": 82.78525119826318,
        "alt_km": 1027.6978266142114,
        "timestamp": "2025-12-07T22:37:43.354067+00:00",
        "meta_object_name": "FENGYUN 1C DEB",
        "meta_object_id": "1999-025TJ",
        "meta_epoch": "2025-12-06T22:57:22.312800",
        "meta_mean_motion": 13.78744494,
        "meta_eccentricity": 0.02008264,
        "meta_inclination": 100.4664,
        "meta_ra_of_asc_node": 330.7432,
        "meta_arg_of_pericenter": 20.2647,
        "meta_mean_anomaly": 34.639,
        "meta_ephemeris_type": 0,
        "meta_classification_type": "U",
        "meta_norad_cat_id": 30153,
        "meta_element_set_no": 999,
        "meta_rev_at_epoch": 94695,
        "meta_bstar": 0.0018099233,
        "meta_mean_motion_dot": 2.086e-05,
        "meta_mean_motion_ddot": 0,
        "tle_line1": "1 30153U 99025TJ  25340.95650825  .00002086  00000+0  18099-2 0  9995",
        "tle_line2": "2 30153 100.4664 330.7432 0200826  20.2647  34.6390 13.78744494946955"
      },
      "geometry": {
        "type": "Point",
        "coordinates": [
          82.78525119826318,
          -78.80383297636384
        ]
      }
    },
    {
      "type": "Feature",
      "properties": {
        "norad_id": 30154,
        "name": "FENGYUN 1C DEB",
        "group": "fengyun-1c-debris",
        "lat": 33.59593897752371,
        "lon": 18.52700267939814,
        "alt_km": 1074.2859318659293,
        "timestamp": "2025-12-07T22:37:43.354077+00:00",
        "meta_object_name": "FENGYUN 1C DEB",
        "meta_object_id": "1999-025TK",
        "meta_epoch": "2025-12-07T01:48:47.945952",
        "meta_mean_motion": 13.8595666,
        "meta_eccentricity": 0.01826933,
        "meta_inclination": 98.4498,
        "meta_ra_of_asc_node": 23.4108,
        "meta_arg_of_pericenter": 214.1579,
        "meta_mean_anomaly": 175.0198,
        "meta_ephemeris_type": 0,
        "meta_classification_type": "U",
        "meta_norad_cat_id": 30154,
        "meta_element_set_no": 999,
        "meta_rev_at_epoch": 94906,
        "meta_bstar": 0.002489748,
        "meta_mean_motion_dot": 3.224e-05,
        "meta_mean_motion_ddot": 0,
        "tle_line1": "1 30154U 99025TK  25341.07555493  .00003224  00000+0  24897-2 0  9993",
        "tle_line2": "2 30154  98.4498  23.4108 0182693 214.1579 175.0198 13.85956660949061"
      },
      "geometry": {
        "type": "Point",
        "coordinates": [
          18.52700267939814,
          33.59593897752371
        ]
      }
    },
    {
      "type": "Feature",
      "properties": {
        "norad_id": 30155,
        "name": "FENGYUN 1C DEB",
        "group": "fengyun-1c-debris",
        "lat": 71.86509589335378,
        "lon": -92.95871880782816,
        "alt_km": 1033.2051076182715,
        "timestamp": "2025-12-07T22:37:43.354088+00:00",
        "meta_object_name": "FENGYUN 1C DEB",
        "meta_object_id": "1999-025TL",
        "meta_epoch": "2025-12-07T04:39:03.396384",
        "meta_mean_motion": 13.73770817,
        "meta_eccentricity": 0.0241815,
        "meta_inclination": 99.7517,
        "meta_ra_of_asc_node": 54.6055,
        "meta_arg_of_pericenter": 358.2535,
        "meta_mean_anomaly": 1.7745,
        "meta_ephemeris_type": 0,
        "meta_classification_type": "U",
        "meta_norad_cat_id": 30155,
        "meta_element_set_no": 999,
        "meta_rev_at_epoch": 93788,
        "meta_bstar": 0.0026467477,
        "meta_mean_motion_dot": 3.01e-05,
        "meta_mean_motion_ddot": 0,
        "tle_line1": "1 30155U 99025TL  25341.19378931  .00003010  00000+0  26467-2 0  9995",
        "tle_line2": "2 30155  99.7517  54.6055 0241815 358.2535   1.7745 13.73770817937884"
      },
      "geometry": {
        "type": "Point",
        "coordinates": [
          -92.95871880782816,
          71.86509589335378
        ]
      }
    },
    {
      "type": "Feature",
      "properties": {
        "norad_id": 30156,
        "name": "FENGYUN 1C DEB",
        "group": "fengyun-1c-debris",
        "lat": -53.52575084053223,
        "lon": 116.94378191738977,
        "alt_km": 856.7545867307117,
        "timestamp": "2025-12-07T22:37:43.354099+00:00",
        "meta_object_name": "FENGYUN 1C DEB",
        "meta_object_id": "1999-025TM",
        "meta_epoch": "2025-12-07T04:11:39.791904",
        "meta_mean_motion": 13.80782704,
        "meta_eccentricity": 0.01998201,
        "meta_inclination": 98.918,
        "meta_ra_of_asc_node": 308.4809,
        "meta_arg_of_pericenter": 277.8778,
        "meta_mean_anomaly": 102.0186,
        "meta_ephemeris_type": 0,
        "meta_classification_type": "U",
        "meta_norad_cat_id": 30156,
        "meta_element_set_no": 999,
        "meta_rev_at_epoch": 94614,
        "meta_bstar": 0.0024756129,
        "meta_mean_motion_dot": 2.987e-05,
        "meta_mean_motion_ddot": 0,
        "tle_line1": "1 30156U 99025TM  25341.17476611  .00002987  00000+0  24756-2 0  9999",
        "tle_line2": "2 30156  98.9180 308.4809 0199820 277.8778 102.0186 13.80782704946141"
      },
      "geometry": {
        "type": "Point",
        "coordinates": [
          116.94378191738977,
          -53.52575084053223
        ]
      }
    },
    {
      "type": "Feature",
      "properties": {
        "norad_id": 30157,
        "name": "FENGYUN 1C DEB",
        "group": "fengyun-1c-debris",
        "lat": 54.078980192255486,
        "lon": -88.9179838919491,
        "alt_km": 733.2503588282098,
        "timestamp": "2025-12-07T22:37:43.354113+00:00",
        "meta_object_name": "FENGYUN 1C DEB",
        "meta_object_id": "1999-025TN",
        "meta_epoch": "2025-12-06T12:53:28.940928",
        "meta_mean_motion": 14.44954203,
        "meta_eccentricity": 0.00370268,
        "meta_inclination": 98.7179,
        "meta_ra_of_asc_node": 77.4117,
        "meta_arg_of_pericenter": 211.3436,
        "meta_mean_anomaly": 165.7832,
        "meta_ephemeris_type": 0,
        "meta_classification_type": "U",
        "meta_norad_cat_id": 30157,
        "meta_element_set_no": 999,
        "meta_rev_at_epoch": 97983,
        "meta_bstar": 0.0038279519,
        "meta_mean_motion_dot": 0.00013434,
        "meta_mean_motion_ddot": 0,
        "tle_line1": "1 30157U 99025TN  25340.53714052  .00013434  00000+0  38280-2 0  9999",
        "tle_line2": "2 30157  98.7179  77.4117 0037026 211.3436 165.7832 14.44954203979838"
      },
      "geometry": {
        "type": "Point",
        "coordinates": [
          -88.9179838919491,
          54.078980192255486
        ]
      }
    },
    {
      "type": "Feature",
      "properties": {
        "norad_id": 30160,
        "name": "FENGYUN 1C DEB",
        "group": "fengyun-1c-debris",
        "lat": 40.600562216266454,
        "lon": 118.77705489452609,
        "alt_km": 839.1873218060491,
        "timestamp": "2025-12-07T22:37:43.354124+00:00",
        "meta_object_name": "FENGYUN 1C DEB",
        "meta_object_id": "1999-025TR",
        "meta_epoch": "2025-12-07T02:36:51.056928",
        "meta_mean_motion": 13.42879548,
        "meta_eccentricity": 0.03424967,
        "meta_inclination": 98.8855,
        "meta_ra_of_asc_node": 290.3351,
        "meta_arg_of_pericenter": 142.0303,
        "meta_mean_anomaly": 287.3041,
        "meta_ephemeris_type": 0,
        "meta_classification_type": "U",
        "meta_norad_cat_id": 30160,
        "meta_element_set_no": 999,
        "meta_rev_at_epoch": 92338,
        "meta_bstar": 0.0010651185,
        "meta_mean_motion_dot": 8.24e-06,
        "meta_mean_motion_ddot": 0,
        "tle_line1": "1 30160U 99025TR  25341.10892427  .00000824  00000+0  10651-2 0  9991",
        "tle_line2": "2 30160  98.8855 290.3351 0342496 142.0303 287.3041 13.42879548923380"
      },
      "geometry": {
        "type": "Point",
        "coordinates": [
          118.77705489452609,
          40.600562216266454
        ]
      }
    },
    {
      "type": "Feature",
      "properties": {
        "norad_id": 30161,
        "name": "FENGYUN 1C DEB",
        "group": "fengyun-1c-debris",
        "lat": -60.83891250663419,
        "lon": -11.50456811933764,
        "alt_km": 862.3570172570917,
        "timestamp": "2025-12-07T22:37:43.354135+00:00",
        "meta_object_name": "FENGYUN 1C DEB",
        "meta_object_id": "1999-025TS",
        "meta_epoch": "2025-12-06T22:18:15.922080",
        "meta_mean_motion": 13.49692734,
        "meta_eccentricity": 0.03285995,
        "meta_inclination": 100.5045,
        "meta_ra_of_asc_node": 328.0059,
        "meta_arg_of_pericenter": 271.921,
        "meta_mean_anomaly": 141.658,
        "meta_ephemeris_type": 0,
        "meta_classification_type": "U",
        "meta_norad_cat_id": 30161,
        "meta_element_set_no": 999,
        "meta_rev_at_epoch": 92481,
        "meta_bstar": 0.0032127516,
        "meta_mean_motion_dot": 2.791e-05,
        "meta_mean_motion_ddot": 0,
        "tle_line1": "1 30161U 99025TS  25340.92935095  .00002791  00000+0  32128-2 0  9998",
        "tle_line2": "2 30161 100.5045 328.0059 0328599 271.9210 141.6580 13.49692734924810"
      },
      "geometry": {
        "type": "Point",
        "coordinates": [
          -11.50456811933764,
          -60.83891250663419
        ]
      }
    }
  ]
}